STARLINK-3151           
1 49408U 21104A   22286.78313917  .00014756  00000+0  94319-3 0  9993
2 49408  53.2174  48.7482 0002069  25.9756 334.1340 15.08841775 50990
STARLINK-3075           
1 49409U 21104B   22286.46673895  .00004241  00000+0  28446-3 0  9999
2 49409  53.2170  50.1716 0001903  40.5345 319.5788 15.08835262 50950
STARLINK-3147           
1 49410U 21104C   22287.05553881  .00010352  00000+0  66722-3 0  9998
2 49410  53.2163  47.5315 0002481  29.5202 330.5930 15.08858841 52110
STARLINK-3162           
1 49411U 21104D   22286.58541560  .00015355  00000+0  98019-3 0  9999
2 49411  53.2173  39.6420 0002261  34.4871 325.6267 15.08859633 51100
STARLINK-3144           
1 49412U 21104E   22287.05920340 -.00002610  00000+0 -14592-3 0  9996
2 49412  53.2181  47.5110 0001319  68.7190 291.3943 15.08853688 52139
STARLINK-3157           
1 49413U 21104F   22286.58173421  .00004401  00000+0  29453-3 0  9994
2 49413  53.2174  39.6526 0002448  33.5675 326.5472 15.08831169 51101
STARLINK-3146           
1 49414U 21104G   22287.05185074  .00007738  00000+0  50348-3 0  9998
2 49414  53.2174  47.5388 0002028  36.9376 323.1755 15.08856833 52120
STARLINK-3159           
1 49415U 21104H   22286.44558277  .00010367  00000+0  66827-3 0  9991
2 49415  53.2162  40.2648 0002554  34.2787 325.8369 15.08852233 51071
STARLINK-3133           
1 49416U 21104J   22286.64705680  .00004086  00000+0  27471-3 0  9999
2 49416  53.2179  49.3501 0001986  38.5778 321.5355 15.08835673 50978
STARLINK-3154           
1 49417U 21104K   22287.03805711  .00002980  00000+0  20529-3 0  9998
2 49417  53.2165  37.6036 0002208  30.8291 329.2830 15.08836743 52277
STARLINK-3111           
1 49418U 21104L   22286.84209559  .00003354  00000+0  22873-3 0  9995
2 49418  53.2175  48.4872 0002232  38.0322 322.0827 15.08840744 50999
STARLINK-3120           
1 49419U 21104M   22287.02976438  .00001687  00000+0  12411-3 0  9998
2 49419  53.2184  47.6469 0002174  42.3816 317.7344 15.08836226 52104
STARLINK-3110           
1 49420U 21104N   22286.63969020  .00003342  00000+0  22802-3 0  9990
2 49420  53.2192  49.3867 0001887  38.6065 321.5062 15.08835659 50961
STARLINK-3112           
1 49421U 21104P   22286.75745655  .00001074  00000+0  85579-4 0  9991
2 49421  53.2190  48.8697 0002065  33.9944 326.1181 15.08825818 50989
STARLINK-3161           
1 49422U 21104Q   22286.63602116  .00002705  00000+0  18804-3 0  9991
2 49422  53.2180  49.4162 0001950  40.1148 319.9988 15.08824090 50965
STARLINK-3149           
1 49423U 21104R   22286.61760611  .00002572  00000+0  17968-3 0  9997
2 49423  53.2184  49.5002 0001943  43.4815 316.6330 15.08837205 50960
STARLINK-3135           
1 49424U 21104S   22286.82737077  .00004345  00000+0  29085-3 0  9994
2 49424  53.2177  48.5527 0001831  46.6293 313.4852 15.08845376 50990
STARLINK-3139           
1 49425U 21104T   22287.07760612  .00002083  00000+0  14895-3 0  9994
2 49425  53.2188  47.4315 0002230  40.6063 319.5096 15.08845017 52114
STARLINK-3114           
1 49426U 21104U   22286.75377140 -.00000255  00000+0  20739-5 0  9995
2 49426  53.2172  48.8907 0002068  37.8005 322.3132 15.08840764 50983
STARLINK-3131           
1 49427U 21104V   22286.74272633  .00002937  00000+0  20255-3 0  9995
2 49427  53.2192  48.9422 0002092  36.3674 323.7460 15.08842375 50992
STARLINK-3121           
1 49428U 21104W   22287.13008541  .00003388  00000+0  23080-3 0  9995
2 49428  53.2181  47.1940 0001937  43.2819 316.8325 15.08847805 52125
STARLINK-3138           
1 49430U 21104Y   22287.20273881  .00004313  00000+0  28887-3 0  9996
2 49430  53.2175  46.8745 0001946  43.3447 316.7698 15.08844193 52138
STARLINK-3153           
1 49431U 21104Z   22287.03072649  .00001794  00000+0  13076-3 0  9991
2 49431  53.2199  47.6363 0001640  45.7935 314.3192 15.08839782 52118
STARLINK-3158           
1 49432U 21104AA  22287.30029156  .00002525  00000+0  17668-3 0  9991
2 49432  53.2153  36.4167 0002473  35.8421 324.2737 15.08841019 52292
STARLINK-3079           
1 49433U 21104AB  22287.30025343 -.00004721  00000+0 -27846-3 0  9997
2 49433  53.2186  26.4257 0002550  26.3170 333.7951 15.08868838 52448
STARLINK-3134           
1 49434U 21104AC  22287.13280984  .00001841  00000+0  13372-3 0  9990
2 49434  53.2189  47.1911 0001864  47.9107 312.2044 15.08838921 52136
STARLINK-3117           
1 49435U 21104AD  22286.44377035  .00003592  00000+0  24380-3 0  9994
2 49435  53.2174  30.2687 0002075  49.1057 311.0115 15.08822256 51226
STARLINK-3049           
1 49436U 21104AE  22286.77401534  .00002427  00000+0  17057-3 0  9992
2 49436  53.2200  28.7826 0002026  40.3947 319.7195 15.08829943 51279
STARLINK-3130           
1 49437U 21104AF  22287.29657606 -.00000695  00000+0 -25550-4 0  9999
2 49437  53.2157  26.4486 0002537  24.6372 335.4740 15.08842441 52429
STARLINK-3044           
1 49438U 21104AG  22287.29289335  .00002465  00000+0  17295-3 0  9991
2 49438  53.2192  26.4652 0002127  38.3188 321.7955 15.08838419 52422
STARLINK-3108           
1 49439U 21104AH  22287.27450768  .00002890  00000+0  19963-3 0  9996
2 49439  53.2160  26.5511 0002653  38.7680 321.3502 15.08834364 52449
STARLINK-3105           
1 49440U 21104AJ  22287.09049262  .00003033  00000+0  20860-3 0  9999
2 49440  53.2180  27.3787 0002675  28.1399 331.9737 15.08841807 52392
STARLINK-3128           
1 49441U 21104AK  22287.20457587 -.00002182  00000+0 -11912-3 0  9990
2 49441  53.2186  26.8658 0002152  40.7560 319.3593 15.08816255 52423
STARLINK-3098           
1 49442U 21104AL  22286.68937976  .00003329  00000+0  22722-3 0  9990
2 49442  53.2184  29.1714 0002201  38.6363 321.4786 15.08827832 51265
STARLINK-3136           
1 49443U 21104AM  22287.26712549  .00000804  00000+0  68624-4 0  9990
2 49443  53.2177  26.5753 0001980  54.6359 305.4818 15.08842643 52422
STARLINK-3126           
1 49444U 21104AN  22286.55321198  .00002228  00000+0  15808-3 0  9995
2 49444  53.2176  29.7825 0002194  37.2771 322.8373 15.08839376 51247
STARLINK-3122           
1 49445U 21104AP  22286.83196506  .00004985  00000+0  33116-3 0  9994
2 49445  53.2170  38.5344 0001953  43.5172 316.5974 15.08834453 51140
STARLINK-3099           
1 49446U 21104AQ  22287.27817734  .00002180  00000+0  15500-3 0  9999
2 49446  53.2172  26.5271 0001676  62.3363 297.7800 15.08838614 52425
STARLINK-3115           
1 49447U 21104AR  22287.08957490  .00002111  00000+0  15073-3 0  9992
2 49447  53.2183  37.3747 0002087  24.0641 336.0449 15.08830635 52259
STARLINK-3097           
1 49448U 21104AS  22286.30573539  .00000612  00000+0  56558-4 0  9993
2 49448  53.2176  40.8898 0002786  40.1701 319.9497 15.08834217 51061
STARLINK-3137           
1 49449U 21104AT  22287.28461007  .00001220  00000+0  94766-4 0  9997
2 49449  53.2170  36.4988 0001921  43.8252 316.2892 15.08836906 52290
STARLINK-3127           
1 49450U 21104AU  22286.43086262  .00001559  00000+0  11609-3 0  9990
2 49450  53.2173  40.3228 0002459  32.1487 327.9655 15.08821005 51349
STARLINK-3125           
1 49451U 21104AV  22286.61852667  .00001743  00000+0  12763-3 0  9998
2 49451  53.2183  39.4925 0002371  27.6925 332.4194 15.08833736 51111
STARLINK-3150           
1 49452U 21104AW  22286.47229550  .00012128  00000+0  77873-3 0  9994
2 49452  53.2188  40.1450 0002298  43.0720 317.0451 15.08841116 51095
STARLINK-3129           
1 49453U 21104AX  22286.61117843  .00001488  00000+0  11161-3 0  9997
2 49453  53.2175  39.5224 0002307  36.2808 323.8340 15.08831074 51112
STARLINK-3160           
1 49454U 21104AY  22286.48237209  .00001505  00000+0  11268-3 0  9990
2 49454  53.2176  40.1027 0001617  54.0631 306.0511 15.08833115 51096
STARLINK-3145           
1 49455U 21104AZ  22286.79885128  .00001204  00000+0  93735-4 0  9990
2 49455  53.2220  38.6777 0002272  18.1160 341.9913 15.08833446 51144
STARLINK-3124           
1 49456U 21104BA  22286.60749179  .00001114  00000+0  88069-4 0  9990
2 49456  53.2170  39.5406 0002260  33.9721 326.1416 15.08837492 51118
STARLINK-3132           
1 49457U 21104BB  22286.66268084  .00000898  00000+0  74520-4 0  9993
2 49457  53.2170  39.3017 0001787  61.4840 298.6332 15.08836563 51125
STARLINK-3156           
1 49458U 21104BC  22287.13372978  .00005133  00000+0  34022-3 0  9994
2 49458  53.2168  37.1852 0002052  39.7266 320.3876 15.08854629 52278
STARLINK-3141           
1 49459U 21104BD  22286.79148131  .00000334  00000+0  39110-4 0  9990
2 49459  53.2174  38.7169 0001920  28.2737 331.8359 15.08831541 52218
STARLINK-3140           
1 49460U 21104BE  22286.65532643  .00003915  00000+0  26397-3 0  9992
2 49460  53.2180  39.3318 0002184  39.1717 320.9432 15.08839235 51119
